*******************************************************************************
Ephemeris / WWW_USER Mon Mar 24 10:35:10 2025 Pasadena, USA      / Horizons    
*******************************************************************************
Target body name: 62412 (2000 SY178)              {source: JPL#46}
Center body name: Earth (399)                     {source: DE441}
Center-site name: Mauna Kea
*******************************************************************************
Start time      : A.D. 2018-Aug-27 04:51:00.0000 UT      
Stop  time      : A.D. 2018-Aug-27 15:56:00.0000 UT      
Step-size       : 1 minutes
*******************************************************************************
Target pole/equ : undefined
Target radii    : 5.187 km                                                     
Center geodetic : 204.5278, 19.8260847, 4.21024   {E-lon(deg),Lat(deg),Alt(km)}
Center cylindric: 204.5278, 6006.35451, 2151.0229 {E-lon(deg),Dxy(km),Dz(km)}
Center pole/equ : ITRF93                          {East-longitude positive}
Center radii    : 6378.137, 6378.137, 6356.752 km {Equator_a, b, pole_c}       
Target primary  : Sun
Vis. interferer : MOON (R_eq= 1737.400) km        {source: DE441}
Rel. light bend : Sun                             {source: DE441}
Rel. lght bnd GM: 1.3271E+11 km^3/s^2                                          
Small-body perts: Yes                             {source: SB441-N16}
Atmos refraction: NO (AIRLESS)
RA format       : HMS
Time format     : CAL 
Calendar mode   : Mixed Julian/Gregorian
RTS-only print  : NO       
EOP file        : eop.250321.p250617                                           
EOP coverage    : DATA-BASED 1962-JAN-20 TO 2025-MAR-21. PREDICTS-> 2025-JUN-16
Units conversion: 1 au= 149597870.700 km, c= 299792.458 km/s, 1 day= 86400.0 s 
Table cut-offs 1: Elevation (-90.0deg=NO ),Airmass (>38.000=NO), Daylight (YES)
Table cut-offs 2: Solar elongation (  0.0,180.0=NO ),Local Hour Angle( 0.0=NO )
Table cut-offs 3: RA/DEC angular rate (     0.0=NO )                           
*******************************************************************************
Initial IAU76/J2000 heliocentric ecliptic osculating elements (au, days, deg.):
  EPOCH=  2458170.5 ! 2018-Feb-21.00 (TDB)         Residual RMS= .27602        
   EC= .08138541630493452  QR= 2.896136740642169   TP= 2458420.7194902785      
   OM= 329.1508619589129   W=  163.0731028483118   IN= 4.736237123453259       
  Equivalent ICRF heliocentric cartesian coordinates (au, au/d):
   X= 4.513940497926217E-01  Y= 2.603132519717001E+00  Z= 1.377127424929858E+00
  VX=-1.018381435292277E-02 VY= 1.034394081524039E-03 VZ= 5.207836918344824E-05
Asteroid physical parameters (km, seconds, rotational period in hours):        
   GM= n.a.                RAD= 5.187              ROTPER= 3.33                
   H= 13.88                G= .150                 B-V= n.a.                   
                           ALBEDO= .065            STYP= n.a.                  
*******************************************************************************
 Date__(UT)__HR:MN     R.A._________(ICRF)_________DEC
******************************************************
$$SOE
 2018-Aug-27 11:00  m  08 43 42.774100 +20 01 01.74759
 2018-Aug-27 11:01  m  08 43 42.840725 +20 01 01.47593
 2018-Aug-27 11:02  m  08 43 42.907348 +20 01 01.20428
 2018-Aug-27 11:03  m  08 43 42.973969 +20 01 00.93265
 2018-Aug-27 11:04  m  08 43 43.040588 +20 01 00.66102
 2018-Aug-27 11:05  m  08 43 43.107206 +20 01 00.38940
 2018-Aug-27 11:06  m  08 43 43.173821 +20 01 00.11780
 2018-Aug-27 11:07  m  08 43 43.240435 +20 00 59.84621
 2018-Aug-27 11:08  m  08 43 43.307047 +20 00 59.57462
 2018-Aug-27 11:09  m  08 43 43.373657 +20 00 59.30305
 2018-Aug-27 11:10  m  08 43 43.440265 +20 00 59.03148
 2018-Aug-27 11:11  m  08 43 43.506872 +20 00 58.75993
 2018-Aug-27 11:12  m  08 43 43.573476 +20 00 58.48839
 2018-Aug-27 11:13  m  08 43 43.640078 +20 00 58.21686
 2018-Aug-27 11:14  m  08 43 43.706679 +20 00 57.94533
 2018-Aug-27 11:15  m  08 43 43.773277 +20 00 57.67382
 2018-Aug-27 11:16  m  08 43 43.839874 +20 00 57.40232
 2018-Aug-27 11:17  m  08 43 43.906469 +20 00 57.13083
 2018-Aug-27 11:18  m  08 43 43.973062 +20 00 56.85935
 2018-Aug-27 11:19  m  08 43 44.039652 +20 00 56.58787
 2018-Aug-27 11:20  m  08 43 44.106241 +20 00 56.31641
 2018-Aug-27 11:21  m  08 43 44.172828 +20 00 56.04496
 2018-Aug-27 11:22  m  08 43 44.239413 +20 00 55.77352
 2018-Aug-27 11:23  m  08 43 44.305995 +20 00 55.50209
 2018-Aug-27 11:24  m  08 43 44.372576 +20 00 55.23066
 2018-Aug-27 11:25  m  08 43 44.439155 +20 00 54.95925
 2018-Aug-27 11:26  m  08 43 44.505731 +20 00 54.68785
 2018-Aug-27 11:27  m  08 43 44.572306 +20 00 54.41646
 2018-Aug-27 11:28  m  08 43 44.638879 +20 00 54.14507
 2018-Aug-27 11:29  m  08 43 44.705449 +20 00 53.87370
 2018-Aug-27 11:30  m  08 43 44.772017 +20 00 53.60233
 2018-Aug-27 11:31  m  08 43 44.838584 +20 00 53.33098
 2018-Aug-27 11:32  m  08 43 44.905148 +20 00 53.05963
 2018-Aug-27 11:33  m  08 43 44.971710 +20 00 52.78830
 2018-Aug-27 11:34  m  08 43 45.038270 +20 00 52.51697
 2018-Aug-27 11:35  m  08 43 45.104828 +20 00 52.24566
 2018-Aug-27 11:36  m  08 43 45.171383 +20 00 51.97435
 2018-Aug-27 11:37  m  08 43 45.237937 +20 00 51.70305
 2018-Aug-27 11:38  m  08 43 45.304488 +20 00 51.43176
 2018-Aug-27 11:39  m  08 43 45.371037 +20 00 51.16048
 2018-Aug-27 11:40  m  08 43 45.437584 +20 00 50.88921
 2018-Aug-27 11:41  m  08 43 45.504129 +20 00 50.61795
 2018-Aug-27 11:42  m  08 43 45.570672 +20 00 50.34669
 2018-Aug-27 11:43  m  08 43 45.637212 +20 00 50.07545
 2018-Aug-27 11:44  m  08 43 45.703750 +20 00 49.80422
 2018-Aug-27 11:45  m  08 43 45.770286 +20 00 49.53299
 2018-Aug-27 11:46  m  08 43 45.836820 +20 00 49.26177
 2018-Aug-27 11:47  m  08 43 45.903351 +20 00 48.99057
 2018-Aug-27 11:48  m  08 43 45.969880 +20 00 48.71937
 2018-Aug-27 11:49  m  08 43 46.036407 +20 00 48.44818
 2018-Aug-27 11:50  m  08 43 46.102932 +20 00 48.17699
 2018-Aug-27 11:51  m  08 43 46.169454 +20 00 47.90582
 2018-Aug-27 11:52  m  08 43 46.235974 +20 00 47.63466
 2018-Aug-27 11:53  m  08 43 46.302492 +20 00 47.36350
 2018-Aug-27 11:54  m  08 43 46.369008 +20 00 47.09235
 2018-Aug-27 11:55  m  08 43 46.435521 +20 00 46.82121
 2018-Aug-27 11:56  m  08 43 46.502032 +20 00 46.55008
 2018-Aug-27 11:57  m  08 43 46.568540 +20 00 46.27896
 2018-Aug-27 11:58  m  08 43 46.635046 +20 00 46.00785
 2018-Aug-27 11:59  m  08 43 46.701550 +20 00 45.73674
 2018-Aug-27 12:00  m  08 43 46.768052 +20 00 45.46564
 2018-Aug-27 12:01  m  08 43 46.834551 +20 00 45.19455
 2018-Aug-27 12:02  m  08 43 46.901047 +20 00 44.92347
 2018-Aug-27 12:03  m  08 43 46.967542 +20 00 44.65240
 2018-Aug-27 12:04  m  08 43 47.034034 +20 00 44.38134
 2018-Aug-27 12:05  m  08 43 47.100523 +20 00 44.11028
 2018-Aug-27 12:06  m  08 43 47.167010 +20 00 43.83923
 2018-Aug-27 12:07  m  08 43 47.233495 +20 00 43.56819
 2018-Aug-27 12:08  m  08 43 47.299977 +20 00 43.29716
 2018-Aug-27 12:09  m  08 43 47.366457 +20 00 43.02613
 2018-Aug-27 12:10  m  08 43 47.432934 +20 00 42.75511
 2018-Aug-27 12:11  m  08 43 47.499409 +20 00 42.48410
 2018-Aug-27 12:12  m  08 43 47.565882 +20 00 42.21310
 2018-Aug-27 12:13  m  08 43 47.632352 +20 00 41.94211
 2018-Aug-27 12:14  m  08 43 47.698819 +20 00 41.67112
 2018-Aug-27 12:15  m  08 43 47.765284 +20 00 41.40014
 2018-Aug-27 12:16  m  08 43 47.831747 +20 00 41.12917
 2018-Aug-27 12:17  m  08 43 47.898207 +20 00 40.85820
 2018-Aug-27 12:18  m  08 43 47.964664 +20 00 40.58725
 2018-Aug-27 12:19  m  08 43 48.031119 +20 00 40.31630
 2018-Aug-27 12:20  m  08 43 48.097572 +20 00 40.04535
 2018-Aug-27 12:21  m  08 43 48.164022 +20 00 39.77442
 2018-Aug-27 12:22  m  08 43 48.230469 +20 00 39.50349
 2018-Aug-27 12:23  m  08 43 48.296914 +20 00 39.23257
 2018-Aug-27 12:24  m  08 43 48.363356 +20 00 38.96165
 2018-Aug-27 12:25  m  08 43 48.429796 +20 00 38.69075
 2018-Aug-27 12:26  m  08 43 48.496233 +20 00 38.41985
 2018-Aug-27 12:27  m  08 43 48.562668 +20 00 38.14895
 2018-Aug-27 12:28  m  08 43 48.629100 +20 00 37.87807
 2018-Aug-27 12:29  m  08 43 48.695529 +20 00 37.60719
 2018-Aug-27 12:30  m  08 43 48.761956 +20 00 37.33631
 2018-Aug-27 12:31  m  08 43 48.828381 +20 00 37.06545
 2018-Aug-27 12:32  m  08 43 48.894802 +20 00 36.79459
 2018-Aug-27 12:33  m  08 43 48.961221 +20 00 36.52373
 2018-Aug-27 12:34  m  08 43 49.027638 +20 00 36.25289
 2018-Aug-27 12:35  m  08 43 49.094051 +20 00 35.98205
 2018-Aug-27 12:36  m  08 43 49.160462 +20 00 35.71122
 2018-Aug-27 12:37  m  08 43 49.226871 +20 00 35.44039
 2018-Aug-27 12:38  m  08 43 49.293277 +20 00 35.16957
 2018-Aug-27 12:39  m  08 43 49.359680 +20 00 34.89875
 2018-Aug-27 12:40  m  08 43 49.426080 +20 00 34.62794
 2018-Aug-27 12:41  m  08 43 49.492478 +20 00 34.35714
 2018-Aug-27 12:42  m  08 43 49.558873 +20 00 34.08635
 2018-Aug-27 12:43  m  08 43 49.625266 +20 00 33.81556
 2018-Aug-27 12:44  m  08 43 49.691655 +20 00 33.54477
 2018-Aug-27 12:45  m  08 43 49.758043 +20 00 33.27399
 2018-Aug-27 12:46  m  08 43 49.824427 +20 00 33.00322
 2018-Aug-27 12:47  m  08 43 49.890808 +20 00 32.73246
 2018-Aug-27 12:48  m  08 43 49.957187 +20 00 32.46170
 2018-Aug-27 12:49  m  08 43 50.023564 +20 00 32.19094
 2018-Aug-27 12:50  m  08 43 50.089937 +20 00 31.92019
 2018-Aug-27 12:51  m  08 43 50.156308 +20 00 31.64945
 2018-Aug-27 12:52  m  08 43 50.222676 +20 00 31.37871
 2018-Aug-27 12:53  m  08 43 50.289041 +20 00 31.10798
 2018-Aug-27 12:54  m  08 43 50.355403 +20 00 30.83725
 2018-Aug-27 12:55  m  08 43 50.421763 +20 00 30.56653
 2018-Aug-27 12:56  m  08 43 50.488120 +20 00 30.29581
 2018-Aug-27 12:57  m  08 43 50.554474 +20 00 30.02510
 2018-Aug-27 12:58  m  08 43 50.620825 +20 00 29.75440
 2018-Aug-27 12:59  m  08 43 50.687174 +20 00 29.48370
 2018-Aug-27 13:00  m  08 43 50.753520 +20 00 29.21300
 2018-Aug-27 13:01  m  08 43 50.819863 +20 00 28.94231
 2018-Aug-27 13:02  m  08 43 50.886203 +20 00 28.67162
